ORBCOMM FM115 [+]       
1 41186U 15081H   23328.19669909  .00001287  00000+0  30039-3 0  9997
2 41186  46.9988 229.8380 0001124 307.4810  52.5974 14.60120665424260
ORBCOMM FM108 [+]       
1 41187U 15081J   23327.29112214  .00001586  00000+0  39404-3 0  9997
2 41187  47.0055 283.1289 0002520 227.6790 132.3881 14.56053394423396
ORBCOMM FM117 [+]       
1 41188U 15081K   23328.28619956  .00001727  00000+0  42588-3 0  9997
2 41188  47.0015 277.3963 0003251 240.3105 119.7456 14.56057636423582
ORBCOMM FM116 [+]       
1 41189U 15081L   23328.55022488  .00001835  00000+0  44983-3 0  9997
2 41189  47.0036   5.9613 0002986 303.3064  56.7534 14.56075501422432
